{
  "type": "FeatureCollection",
  "features": [
    {
      "type": "Feature",
      "properties": {
        "norad_id": 51444,
        "name": "CSG-2",
        "group": "resource",
        "lat": -72.03621376003076,
        "lon": -175.95258883672108,
        "alt_km": 630.848639993008,
        "timestamp": "2025-12-03T06:58:42.899198+00:00",
        "meta_object_name": "CSG-2",
        "meta_object_id": "2022-008A",
        "meta_epoch": "2025-12-02T19:58:09.742080",
        "meta_mean_motion": 14.82146437,
        "meta_eccentricity": 0.0001476,
        "meta_inclination": 97.8808,
        "meta_ra_of_asc_node": 158.3046,
        "meta_arg_of_pericenter": 91.1086,
        "meta_mean_anomaly": 269.0296,
        "meta_ephemeris_type": 0,
        "meta_classification_type": "U",
        "meta_norad_cat_id": 51444,
        "meta_element_set_no": 999,
        "meta_rev_at_epoch": 20750,
        "meta_bstar": 8.8546e-05,
        "meta_mean_motion_dot": 6.53e-06,
        "meta_mean_motion_ddot": 0,
        "tle_line1": "1 51444U 22008A   25336.83205720  .00000653  00000+0  88546-4 0  9994",
        "tle_line2": "2 51444  97.8808 158.3046 0001476  91.1086 269.0296 14.82146437207508"
      },
      "geometry": {
        "type": "Point",
        "coordinates": [
          -175.95258883672108,
          -72.03621376003076
        ]
      }
    },
    {
      "type": "Feature",
      "properties": {
        "norad_id": 52912,
        "name": "GAOFEN-12 03",
        "group": "resource",
        "lat": -68.70428820567935,
        "lon": -114.41751197155553,
        "alt_km": 639.2868750212083,
        "timestamp": "2025-12-03T06:58:42.899208+00:00",
        "meta_object_name": "GAOFEN-12 03",
        "meta_object_id": "2022-069A",
        "meta_epoch": "2025-12-02T19:56:01.110624",
        "meta_mean_motion": 14.79569451,
        "meta_eccentricity": 0.0002322,
        "meta_inclination": 97.8487,
        "meta_ra_of_asc_node": 224.4082,
        "meta_arg_of_pericenter": 76.5031,
        "meta_mean_anomaly": 283.644,
        "meta_ephemeris_type": 0,
        "meta_classification_type": "U",
        "meta_norad_cat_id": 52912,
        "meta_element_set_no": 999,
        "meta_rev_at_epoch": 18557,
        "meta_bstar": 0.00021851,
        "meta_mean_motion_dot": 1.585e-05,
        "meta_mean_motion_ddot": 0,
        "tle_line1": "1 52912U 22069A   25336.83056841  .00001585  00000+0  21851-3 0  9990",
        "tle_line2": "2 52912  97.8487 224.4082 0002322  76.5031 283.6440 14.79569451185571"
      },
      "geometry": {
        "type": "Point",
        "coordinates": [
          -114.41751197155553,
          -68.70428820567935
        ]
      }
    },
    {
      "type": "Feature",
      "properties": {
        "norad_id": 54754,
        "name": "SWOT",
        "group": "resource",
        "lat": 73.62176557855612,
        "lon": -11.842263601042559,
        "alt_km": 885.8712487599769,
        "timestamp": "2025-12-03T06:58:42.899219+00:00",
        "meta_object_name": "SWOT",
        "meta_object_id": "2022-173A",
        "meta_epoch": "2025-12-02T20:18:44.283168",
        "meta_mean_motion": 14.00172298,
        "meta_eccentricity": 3.05e-05,
        "meta_inclination": 77.6099,
        "meta_ra_of_asc_node": 300.3457,
        "meta_arg_of_pericenter": 139.5892,
        "meta_mean_anomaly": 220.5283,
        "meta_ephemeris_type": 0,
        "meta_classification_type": "U",
        "meta_norad_cat_id": 54754,
        "meta_element_set_no": 999,
        "meta_rev_at_epoch": 15167,
        "meta_bstar": 5.0877e-05,
        "meta_mean_motion_dot": 7.2e-07,
        "meta_mean_motion_ddot": 0,
        "tle_line1": "1 54754U 22173A   25336.84634587  .00000072  00000+0  50877-4 0  9993",
        "tle_line2": "2 54754  77.6099 300.3457 0000305 139.5892 220.5283 14.00172298151678"
      },
      "geometry": {
        "type": "Point",
        "coordinates": [
          -11.842263601042559,
          73.62176557855612
        ]
      }
    },
    {
      "type": "Feature",
      "properties": {
        "norad_id": 57654,
        "name": "GAOFEN-12 04",
        "group": "resource",
        "lat": 79.74761852958916,
        "lon": 123.43779253119014,
        "alt_km": 622.1209707363378,
        "timestamp": "2025-12-03T06:58:42.899229+00:00",
        "meta_object_name": "GAOFEN-12 04",
        "meta_object_id": "2023-123A",
        "meta_epoch": "2025-12-02T20:48:22.087584",
        "meta_mean_motion": 14.7965131,
        "meta_eccentricity": 0.0001467,
        "meta_inclination": 97.9112,
        "meta_ra_of_asc_node": 252.7745,
        "meta_arg_of_pericenter": 71.2773,
        "meta_mean_anomaly": 288.8598,
        "meta_ephemeris_type": 0,
        "meta_classification_type": "U",
        "meta_norad_cat_id": 57654,
        "meta_element_set_no": 999,
        "meta_rev_at_epoch": 12359,
        "meta_bstar": 0.0002664,
        "meta_mean_motion_dot": 1.947e-05,
        "meta_mean_motion_ddot": 0,
        "tle_line1": "1 57654U 23123A   25336.86692231  .00001947  00000+0  26640-3 0  9995",
        "tle_line2": "2 57654  97.9112 252.7745 0001467  71.2773 288.8598 14.79651310123590"
      },
      "geometry": {
        "type": "Point",
        "coordinates": [
          123.43779253119014,
          79.74761852958916
        ]
      }
    },
    {
      "type": "Feature",
      "properties": {
        "norad_id": 59065,
        "name": "PARS 1",
        "group": "resource",
        "lat": -36.786221286257806,
        "lon": 122.40276348371957,
        "alt_km": 454.5923763530627,
        "timestamp": "2025-12-03T06:58:42.899240+00:00",
        "meta_object_name": "PARS 1",
        "meta_object_id": "2024-039Q",
        "meta_epoch": "2025-12-02T20:41:15.528192",
        "meta_mean_motion": 15.406353,
        "meta_eccentricity": 0.0012648,
        "meta_inclination": 97.4617,
        "meta_ra_of_asc_node": 307.5892,
        "meta_arg_of_pericenter": 101.2476,
        "meta_mean_anomaly": 259.0192,
        "meta_ephemeris_type": 0,
        "meta_classification_type": "U",
        "meta_norad_cat_id": 59065,
        "meta_element_set_no": 999,
        "meta_rev_at_epoch": 9836,
        "meta_bstar": 0.0003735,
        "meta_mean_motion_dot": 0.00015183,
        "meta_mean_motion_ddot": 0,
        "tle_line1": "1 59065U 24039Q   25336.86198528  .00015183  00000+0  37350-3 0  9997",
        "tle_line2": "2 59065  97.4617 307.5892 0012648 101.2476 259.0192 15.40635300 98368"
      },
      "geometry": {
        "type": "Point",
        "coordinates": [
          122.40276348371957,
          -36.786221286257806
        ]
      }
    },
    {
      "type": "Feature",
      "properties": {
        "norad_id": 59371,
        "name": "RESURS-P 4",
        "group": "resource",
        "lat": -61.613069294467735,
        "lon": -62.55345098942263,
        "alt_km": 477.8158073681543,
        "timestamp": "2025-12-03T06:58:42.899250+00:00",
        "meta_object_name": "RESURS-P 4",
        "meta_object_id": "2024-061A",
        "meta_epoch": "2025-12-02T20:16:38.999712",
        "meta_mean_motion": 15.3196196,
        "meta_eccentricity": 0.0002195,
        "meta_inclination": 97.2526,
        "meta_ra_of_asc_node": 283.3794,
        "meta_arg_of_pericenter": 55.3559,
        "meta_mean_anomaly": 304.7889,
        "meta_ephemeris_type": 0,
        "meta_classification_type": "U",
        "meta_norad_cat_id": 59371,
        "meta_element_set_no": 999,
        "meta_rev_at_epoch": 9369,
        "meta_bstar": 0.00021031,
        "meta_mean_motion_dot": 6.414e-05,
        "meta_mean_motion_ddot": 0,
        "tle_line1": "1 59371U 24061A   25336.84489583  .00006414  00000+0  21031-3 0  9990",
        "tle_line2": "2 59371  97.2526 283.3794 0002195  55.3559 304.7889 15.31961960 93690"
      },
      "geometry": {
        "type": "Point",
        "coordinates": [
          -62.55345098942263,
          -61.613069294467735
        ]
      }
    },
    {
      "type": "Feature",
      "properties": {
        "norad_id": 59625,
        "name": "LEGION 1",
        "group": "resource",
        "lat": -26.919244621540273,
        "lon": 55.85829942553984,
        "alt_km": 519.7215229239046,
        "timestamp": "2025-12-03T06:58:42.899261+00:00",
        "meta_object_name": "LEGION 1",
        "meta_object_id": "2024-081A",
        "meta_epoch": "2025-12-02T18:25:40.100736",
        "meta_mean_motion": 15.16319709,
        "meta_eccentricity": 0.0004754,
        "meta_inclination": 97.5231,
        "meta_ra_of_asc_node": 51.4923,
        "meta_arg_of_pericenter": 356.4486,
        "meta_mean_anomaly": 3.6713,
        "meta_ephemeris_type": 0,
        "meta_classification_type": "U",
        "meta_norad_cat_id": 59625,
        "meta_element_set_no": 999,
        "meta_rev_at_epoch": 8776,
        "meta_bstar": 0.00036186,
        "meta_mean_motion_dot": 6.949e-05,
        "meta_mean_motion_ddot": 0,
        "tle_line1": "1 59625U 24081A   25336.76782524  .00006949  00000+0  36186-3 0  9996",
        "tle_line2": "2 59625  97.5231  51.4923 0004754 356.4486   3.6713 15.16319709 87766"
      },
      "geometry": {
        "type": "Point",
        "coordinates": [
          55.85829942553984,
          -26.919244621540273
        ]
      }
    }
  ]
}